#dP2021  4 25  0  0  0.00000000      96 __u+U ITR00 FIT  IAC
## 2155      0.00000000   900.00000000 59329 0.0000000000000
+  116   C06C07C08C09C10C11C12C13C14C16C19C20C21C22C23C24C25
+        C26C27C28C29C30C32C33C34C35C36C37C38C39C40C41C42C43
+        C44C45C46E01E02E03E04E05E07E08E09E11E12E13E14E15E18
+        E19E21E24E25E26E27E30E31E33E36G01G02G03G04G05G06G07
+        G08G09G10G12G13G14G15G16G17G18G19G20G21G22G23G24G25
+        G26G27G28G29G30G31G32J01J02J03R01R02R03R04R05R07R08
+        R09R11R12R13R14R15R16R17R18R19R20R21R22R24  0  0  0
++         9  6  6  8  8  8  8  7  8  9  6  7  8  6  7  7  6
++         6  6  7  8  7  8  6  7  6  7  6  8  8  9  6  7  6
++         7  7  7  6  6  7  5  6  6  7  6  6  6  6  6  6  6
++         7  6  6  6  5  6  7  6  5  6  6  8  6  5  6  5  7
++         7  6  7  5  5  6  7  5  6  4  5  6  5  5  6  7  6
++         6  6  7  6  7  6  6  8  9  6  8  7  6  5  5  7  6
++         8  6  6  8  7  6  6  8  7  4  7  8  8  5  0  0  0
%c M  cc GPS ccc cccc cccc cccc cccc ccccc ccccc ccccc ccccc
%c cc cc ccc ccc cccc cccc cccc cccc ccccc ccccc ccccc ccccc
%f  0.0000000  0.000000000  0.00000000000  0.000000000000000
%f  0.0000000  0.000000000  0.00000000000  0.000000000000000
%i    0    0    0    0      0      0      0      0         0
%i    0    0    0    0      0      0      0      0         0
/* INFORMATION & ANALYSIS CENTER (IAC)      ULTRA-RAPID DATA
/* S/V CLOCKS ARE ALIGNED TO GNSS TIME                      
/* G:C1WC2W R:C1PC2P E:C1XC5X C:C2IC6I J:C1CC2S             
/* PCV:IGS14_2148 OL/AL:FES2004  NONE     YN ORB:CoN CLK:CoN
*  2021 04 25 18  0  0.00000000
PC06  -7541.134883  28568.269389  30724.813295    316.188350
PC07 -23486.937762  24484.512603 -25083.001980   -157.340719
PC08 -18952.118043  37312.717033  -3028.367724   -890.918363
PC09   4846.244022  36663.795526  20944.911050    569.681199
PC10  -7016.631910  27033.697946 -31471.237989    -51.412714
PC11  -5156.885539  18822.761664 -19874.797638    304.654588
PC12 -16145.045072   1212.184438 -22700.680311    911.447577
PC13  -9931.777943  39572.754758  10218.489493    235.945752
PC14 -14600.268965  13298.666958  19770.286388    562.609886
PC16  -3818.701505  30418.911848  29160.730460   -802.707040
PC19   3660.089166 -15657.637061 -22773.524938    811.790772
PC20  21709.009453  -9484.912260 -14699.692577   -946.039022
PC21 -27668.315601  -2709.294355  -2558.409477   -947.920469
PC22 -17076.898861 -12969.049475 -17866.256547   -963.078242
PC23   6970.224964  17002.631847 -20999.446967   -894.014433
PC24 -19204.951840  18067.550896   9092.151041   -826.340564
PC25  -7606.985270  25248.028159  -9108.313565   -926.877243
PC26 -18525.485740   2096.058584  20745.801334    915.935690
PC27  18861.101186   8831.065125  18564.861591    521.333415
PC28  14675.052142  23470.983347   3531.543722    -81.968358
PC29  -2808.525939 -24237.560484  13526.751162    383.712623
PC30  11929.242048 -10908.122086  22738.252165    463.028973
PC32  27660.617785   2545.560164   2622.977559   -942.677286
PC33  -3704.343759  15717.351434  22772.982270   -942.187806
PC34 -11502.075633  11652.616207 -22612.212014   -687.746463
PC35 -15325.091274 -23074.409420  -3216.958722   -310.257334
PC36   8461.376302 -25098.776049   8808.880382   -729.334377
PC37  18272.613907   -793.892707 -21066.790586   -905.332135
PC38 -16146.591010  38875.781513   1092.039126    144.607417
PC39    888.239385  32008.022648  27513.326224     30.604978
PC40 -12552.419228  21927.901583 -33758.314406 999999.999999
PC41  16787.743472  13102.105297  18089.630514   -946.759608
PC42 -22243.292455   9192.739551  14188.699847   -920.440194
PC43   2228.759243  24124.111743 -13882.193531   -701.803109
PC44 -19256.732078  -8276.189369 -18415.405072 999999.999999
PC45  -6981.264890 -16865.188101  21115.355390    423.396516
PC46  18878.300548 -18840.626233  -8266.510752    299.761524
PE01  -5903.911666  19945.050164 -21059.552144  -1094.547028
PE02   5802.097082 -19923.950944  21109.126384    214.714862
PE03  -5647.662748 -20159.838417 -20925.798504   -424.074610
PE04  22603.303809  17968.955711   6516.414276   -757.672723
PE05  14916.089706 -10542.756010 -23283.906299   -285.959035
PE07 -26558.681381  -5103.926127  12057.211412   -530.061729
PE08 -22918.858854 -17678.618059  -6222.499640   6012.060881
PE09  26493.266356   4907.524182 -12228.146281   5688.894034
PE11  16193.609577     69.207896  24770.880629   6054.736867
PE12  11487.842086  21427.590621  16901.568810   5241.861957
PE13 -16121.971571   -486.884794 -24815.505196    415.525213
PE14 -20094.479442 -20446.916207    849.865709  -1409.352323
PE15 -11523.612941 -21337.772372 -16958.994752    817.596538
PE18   9134.441578  23849.429243 -12594.433418  -1542.116080
PE19   3286.932576  19514.851222  22023.122812    261.229152
PE21 -22219.726040  18394.182549  -6637.960462   -661.357093
PE24  26175.146880  -5325.221752 -12795.657639   -866.398955
PE25  22342.372010 -18319.409238   6449.491017   -531.970216
PE26 -11075.880909  21212.387888 -17422.283118   1883.158198
PE27 -26289.722942   6079.287298  12157.134589    -18.893040
PE30 -14030.167381 -10482.726327  23848.258093   2996.064830
PE31  14884.699077   9712.801900 -23667.172238   -480.520348
PE33    156.138064  29595.258346   -855.115268   -467.919811
PE36  11225.536315 -20592.885154  18052.748885   -198.567331
PG01  13416.165390 -16993.642013  14887.623954    706.653452
PG02 -13689.047578  -7655.511552 -20776.418183   -598.844237
PG03  21981.414954 -12991.003184  -7179.341520   -146.767742
PG04  13704.502106  -7740.133379 -21394.535378   -193.561204
PG05 -25038.300438   3274.562529  -8689.871106    -40.113440
PG06  -7337.151427 -19587.164812 -16273.750239     10.100232
PG07   6840.474908 -25207.180831  -2659.227971    132.781887
PG08  19750.035475    336.007121  17891.544666    -18.835822
PG09   3219.491083 -16408.180499 -20691.770104   -341.411764
PG10   4883.092329  14290.478989  21962.788477   -109.295753
PG12 -23980.265792  10155.449592  -5062.946105    -32.616598
PG13 -20941.041027 -10153.333562  12789.258955    124.297942
PG14  -3354.675881 -14943.943148  21688.379297     93.023035
PG15 -19906.919366   2146.864848  17257.307834   -153.712213
PG16  24078.421617   2123.842090 -11766.233326   -315.298914
PG17 -11070.607851 -21422.635948  11555.093198    432.250006
PG18  -4840.086789  26066.352371    864.107593    351.437712
PG19 -16986.083688 -20316.591257   2407.909452     -8.221224
PG20 -20026.455244  15906.283545   6479.588932    522.814962
PG21  15364.278429  -9037.290306  20259.873665    113.640267
PG22  24698.778762  -9027.358669   3100.027848   -629.499062
PG23  -7690.624666  16988.124809  18875.148374    111.328353
PG24 -14761.476763  12186.237241  18004.605482     35.297204
PG25 -14300.153149  16411.505205 -15292.022756    125.411648
PG26  17973.695759   7162.098488 -18366.532615     77.006991
PG27  22480.913668  11022.308555   9230.033697   -119.117596
PG28  -7122.330006 -13745.959667  22119.819387    581.224538
PG29  -3856.177913  15835.742364 -21009.790240   -336.256798
PG30  -2160.378024 -24478.682628   9831.454121   -417.725961
PG31   9392.473576  16960.873640 -18027.516443   -113.675255
PG32  14075.081206  20599.259924   9464.942294     21.974546
PJ01 -29744.036402  21578.333537  25699.609312   -370.146625
PJ02 -35012.586911  23069.473612    349.525807      6.396780
PJ03 -20518.166738  22555.952340 -24551.372746     -4.090938
PR01   2908.445532 -10713.116293 -22958.334835     78.451432
PR02 -18046.248445 -11041.956050 -14160.539405    476.208894
PR03 -24976.437834  -4320.280129   2664.513943     34.830819
PR04 -17720.988536   4547.202063  17805.463794     83.993255
PR05   -617.346779  10950.886080  23046.321526     70.601067
PR07  24992.528008   4103.155324  -3173.531584    -42.527752
PR08  17734.837798  -4618.803572 -17691.170333    -58.703558
PR09   5586.894987  10423.708764 -22592.916785    -10.272513
PR11  18168.609300 -17382.038951  -4251.499287     -0.608022
PR12   9247.055241 -19629.541767  13450.405068    223.784352
PR13  -4945.168958 -10667.681818  22617.167399    -53.925600
PR14 -16743.836006   5070.496090  18577.421389     63.552351
PR15 -18355.361767  17299.401698   3820.012985    104.163666
PR16  -7888.911218  19582.134514 -14244.761640    -14.271467
PR17 -12335.810276  -7828.904975 -20912.652860    418.847774
PR18  -7369.823701  10108.188727 -22228.992384     74.376985
PR19    398.854071  22277.015814 -12424.717985   -141.220137
PR20   9525.117339  22519.834638   7358.176487    -47.974240
PR21  12089.056326   6598.229474  21463.269004   -204.355421
PR22   6954.585791 -10962.684647  21919.141198   -109.597309
PR24 -10226.348348 -21971.949521  -7955.445149     40.235802
EOF
